OBJECT_NAME,OBJECT_ID,EPOCH,MEAN_MOTION,ECCENTRICITY,INCLINATION,RA_OF_ASC_NODE,ARG_OF_PERICENTER,MEAN_ANOMALY,EPHEMERIS_TYPE,CLASSIFICATION_TYPE,NORAD_CAT_ID,ELEMENT_SET_NO,REV_AT_EPOCH,BSTAR,MEAN_MOTION_DOT,MEAN_MOTION_DDOT
SAUDISAT 1C (SO-50),2002-058C,2026-07-17T13:35:59.912160,14.83100826,.00744554,64.5519,34.9873,256.8352,102.4439,0,U,27607,999,26896,.58139126E-4,.339E-5,0
SAUDISAT 2,2004-025F,2026-07-17T10:59:46.374432,14.56698938,.00241942,98.5522,199.2243,201.0830,158.9372,0,U,28371,999,17015,.30777118E-4,.88E-6,0
SAUDISAT 3,2007-012B,2026-07-17T14:06:00.940896,14.71440948,.00157147,98.1468,149.0107,127.5874,232.6762,0,U,31118,999,3221,.2287084E-4,.91E-6,0
PISAT,2016-059B,2026-07-17T10:55:06.822048,14.69031877,.00305071,97.8192,197.6092,107.9355,252.5181,0,U,41784,999,52418,.79782818E-4,.424E-5,0
FLYING LAPTOP,2017-042G,2026-07-17T15:30:24.062976,15.01322777,.00195993,97.4818,353.0350,24.7102,335.5057,0,U,42831,999,49102,.16181533E-3,.2033E-4,0
SALSAT,2020-068K,2026-07-16T23:14:24.421344,15.30186484,.00093844,97.8858,202.8562,186.4299,173.6821,0,U,46495,999,31991,.1366282E-3,.3909E-4,0
